[{"OBJECT_NAME":"STARLINK-5911","OBJECT_ID":"2023-037AN","EPOCH":"2026-03-09T23:23:07.999296","MEAN_MOTION":14.98333079,"ECCENTRICITY":0.00027499,"INCLINATION":69.9979,"RA_OF_ASC_NODE":263.8256,"ARG_OF_PERICENTER":269.9598,"MEAN_ANOMALY":90.1246,"EPHEMERIS_TYPE":0,"CLASSIFICATION_TYPE":"U","NORAD_CAT_ID":55950,"ELEMENT_SET_NO":999,"REV_AT_EPOCH":16451,"BSTAR":4.2189496e-5,"MEAN_MOTION_DOT":4.1e-6,"MEAN_MOTION_DDOT":0},{"OBJECT_NAME":"COSMOS 2151","OBJECT_ID":"1991-042A","EPOCH":"2026-03-09T21:12:10.736640","MEAN_MOTION":15.00104908,"ECCENTRICITY":0.00139956,"INCLINATION":82.493,"RA_OF_ASC_NODE":83.4892,"ARG_OF_PERICENTER":63.3058,"MEAN_ANOMALY":296.9597,"EPHEMERIS_TYPE":0,"CLASSIFICATION_TYPE":"U","NORAD_CAT_ID":21422,"ELEMENT_SET_NO":999,"REV_AT_EPOCH":86322,"BSTAR":0.00015116122,"MEAN_MOTION_DOT":1.915e-5,"MEAN_MOTION_DDOT":0}]
